KAITUO 1B               
1 40912U 15049P   17330.78542977  .00002332  00000-0  11696-3 0  9994
2 40912  97.4502 336.0589 0015547   2.9601  84.2697 15.18226593120954
TIANWANG 1C (TW-1C)     
1 40926U 15051B   17330.79963767  .00012517  00000-0  25940-3 0  9990
2 40926  97.2108   9.2326 0009027 303.2802 145.6954 15.45836768122011
TIANWANG 1B (TW-1B)     
1 40927U 15051C   17330.85835750  .00012176  00000-0  26249-3 0  9992
2 40927  97.2190   9.2316 0009096 315.8150 130.4330 15.44680711121959
TIANWANG 1A (TW-1A)     
1 40928U 15051D   17330.81159394  .00004414  00000-0  12204-3 0  9994
2 40928  97.2095   3.6802 0011582 341.7965 104.9904 15.37484327121676
LAPAN-A2 (IO-86)        
1 40931U 15052B   17330.89594207  .00000713  00000-0  10209-4 0  9995
2 40931   5.9962 152.5638 0013400  24.7135 335.3684 14.76556438117055
LQSAT                   
1 40958U 15057A   17330.80549498  .00000084  00000-0  20857-4 0  9993
2 40958  97.9636  43.1582 0016653 265.3963  94.5339 14.73003141115055
CHUBUSAT-2              
1 41338U 16012B   17330.60970927  .00000473  00000-0  30323-4 0  9992
2 41338  31.0020 160.6115 0014031 227.9372 132.0069 14.99875939 97391
CHUBUSAT-3              
1 41339U 16012C   17330.71578764  .00000489  00000-0  31483-4 0  9993
2 41339  31.0079 158.8311 0013871 235.8021 124.1290 15.00071525 97393
OUFTI-1                 
1 41458U 16025C   17330.83044411  .00002503  00000-0  13439-3 0  9998
2 41458  98.1629  17.6438 0173177 105.6912 256.3483 15.03971404 87019
E-ST@R-II               
1 41459U 16025D   17330.80467409  .00003042  00000-0  16250-3 0  9995
2 41459  98.1674  17.5273 0174466 106.3888 255.6569 15.03770772 87009
AAUSAT 4                
1 41460U 16025E   17330.82579657  .00003727  00000-0  19751-3 0  9997
2 41460  98.1577  17.7778 0165933 103.5858 258.3895 15.04935394 87040
NUSAT 1 (LO-87)         
1 41557U 16033B   17330.81867882  .00002289  00000-0  86968-4 0  9999
2 41557  97.4525  50.3002 0014925 147.8435 212.3717 15.27752620 83257
BEESAT-4                
1 41619U 16040W   17330.61505033  .00002244  00000-0  10275-3 0  9999
2 41619  97.4436  31.3249 0010930 213.4571 146.5975 15.21489116 67282
PRATHAM                 
1 41783U 16059A   17330.61109347  .00000105  00000-0  29904-4 0  9993
2 41783  98.1474  30.1310 0033826  13.7770 346.4347 14.62882420 62346
ALSAT 1N                
1 41789U 16059G   17330.73816495  .00000157  00000-0  38956-4 0  9995
2 41789  98.1476  31.0753 0028660   7.2459 352.9141 14.64104357 62394
NAYIF-1 (EO-88)         
1 42017U 17008BX  17330.55318193  .00002412  00000-0  10326-3 0  9993
2 42017  97.4762  31.5893 0006986  25.9261 334.2325 15.23762192 43203
LILACSAT-1              
1 42725U 98067ME  17330.80883515  .00020868  00000-0  24896-3 0  9998
2 42725  51.6386 303.4527 0004701 177.3356 182.7663 15.61006422 28829
MAX VALIER SAT          
1 42778U 17036P   17330.16916933  .00001607  00000-0  75783-4 0  9995
2 42778  97.4324  27.9737 0014206  64.6946 295.5760 15.20853817 23641
